<?xml version="1.0" encoding="UTF-8"?>
<ndm xmlns:xsi="http://www.w3.org/2001/XMLSchema-instance" xsi:noNamespaceSchemaLocation="https://sanaregistry.org/r/ndmxml_unqualified/ndmxml-2.0.0-master-2.0.xsd">
<omm id="CCSDS_OMM_VERS" version="2.0">
<header><CREATION_DATE/><ORIGINATOR/></header><body><segment><metadata><OBJECT_NAME>ORBCOMM FM33 [-]</OBJECT_NAME><OBJECT_ID>1999-065D</OBJECT_ID><CENTER_NAME>EARTH</CENTER_NAME><REF_FRAME>TEME</REF_FRAME><TIME_SYSTEM>UTC</TIME_SYSTEM><MEAN_ELEMENT_THEORY>SGP4</MEAN_ELEMENT_THEORY></metadata><data><meanElements><EPOCH>2024-01-20T20:11:56.603904</EPOCH><MEAN_MOTION>14.37212491</MEAN_MOTION><ECCENTRICITY>.0009437</ECCENTRICITY><INCLINATION>45.0287</INCLINATION><RA_OF_ASC_NODE>273.9397</RA_OF_ASC_NODE><ARG_OF_PERICENTER>0.5248</ARG_OF_PERICENTER><MEAN_ANOMALY>119.5270</MEAN_ANOMALY></meanElements><tleParameters><EPHEMERIS_TYPE>0</EPHEMERIS_TYPE><CLASSIFICATION_TYPE>U</CLASSIFICATION_TYPE><NORAD_CAT_ID>25983</NORAD_CAT_ID><ELEMENT_SET_NO>999</ELEMENT_SET_NO><REV_AT_EPOCH>26214</REV_AT_EPOCH><BSTAR>.60756E-3</BSTAR><MEAN_MOTION_DOT>.1684E-4</MEAN_MOTION_DOT><MEAN_MOTION_DDOT>0</MEAN_MOTION_DDOT></tleParameters></data></segment></body></omm>
<omm id="CCSDS_OMM_VERS" version="2.0">
<header><CREATION_DATE/><ORIGINATOR/></header><body><segment><metadata><OBJECT_NAME>ORBCOMM FM36 [-]</OBJECT_NAME><OBJECT_ID>1999-065E</OBJECT_ID><CENTER_NAME>EARTH</CENTER_NAME><REF_FRAME>TEME</REF_FRAME><TIME_SYSTEM>UTC</TIME_SYSTEM><MEAN_ELEMENT_THEORY>SGP4</MEAN_ELEMENT_THEORY></metadata><data><meanElements><EPOCH>2024-01-20T23:20:09.549600</EPOCH><MEAN_MOTION>14.35085707</MEAN_MOTION><ECCENTRICITY>.0004709</ECCENTRICITY><INCLINATION>45.0414</INCLINATION><RA_OF_ASC_NODE>356.9172</RA_OF_ASC_NODE><ARG_OF_PERICENTER>262.9634</ARG_OF_PERICENTER><MEAN_ANOMALY>97.0679</MEAN_ANOMALY></meanElements><tleParameters><EPHEMERIS_TYPE>0</EPHEMERIS_TYPE><CLASSIFICATION_TYPE>U</CLASSIFICATION_TYPE><NORAD_CAT_ID>25984</NORAD_CAT_ID><ELEMENT_SET_NO>999</ELEMENT_SET_NO><REV_AT_EPOCH>26062</REV_AT_EPOCH><BSTAR>.77936E-3</BSTAR><MEAN_MOTION_DOT>.2103E-4</MEAN_MOTION_DOT><MEAN_MOTION_DDOT>0</MEAN_MOTION_DDOT></tleParameters></data></segment></body></omm>
<omm id="CCSDS_OMM_VERS" version="2.0">
<header><CREATION_DATE/><ORIGINATOR/></header><body><segment><metadata><OBJECT_NAME>ORBCOMM FM35 [+]</OBJECT_NAME><OBJECT_ID>1999-065F</OBJECT_ID><CENTER_NAME>EARTH</CENTER_NAME><REF_FRAME>TEME</REF_FRAME><TIME_SYSTEM>UTC</TIME_SYSTEM><MEAN_ELEMENT_THEORY>SGP4</MEAN_ELEMENT_THEORY></metadata><data><meanElements><EPOCH>2024-01-20T23:38:43.388160</EPOCH><MEAN_MOTION>14.34737757</MEAN_MOTION><ECCENTRICITY>.0004498</ECCENTRICITY><INCLINATION>45.0411</INCLINATION><RA_OF_ASC_NODE>359.1856</RA_OF_ASC_NODE><ARG_OF_PERICENTER>330.7670</ARG_OF_PERICENTER><MEAN_ANOMALY>29.2925</MEAN_ANOMALY></meanElements><tleParameters><EPHEMERIS_TYPE>0</EPHEMERIS_TYPE><CLASSIFICATION_TYPE>U</CLASSIFICATION_TYPE><NORAD_CAT_ID>25985</NORAD_CAT_ID><ELEMENT_SET_NO>999</ELEMENT_SET_NO><REV_AT_EPOCH>26102</REV_AT_EPOCH><BSTAR>.75857E-3</BSTAR><MEAN_MOTION_DOT>.2028E-4</MEAN_MOTION_DOT><MEAN_MOTION_DDOT>0</MEAN_MOTION_DDOT></tleParameters></data></segment></body></omm>
<omm id="CCSDS_OMM_VERS" version="2.0">
<header><CREATION_DATE/><ORIGINATOR/></header><body><segment><metadata><OBJECT_NAME>ORBCOMM FM34 [-]</OBJECT_NAME><OBJECT_ID>1999-065G</OBJECT_ID><CENTER_NAME>EARTH</CENTER_NAME><REF_FRAME>TEME</REF_FRAME><TIME_SYSTEM>UTC</TIME_SYSTEM><MEAN_ELEMENT_THEORY>SGP4</MEAN_ELEMENT_THEORY></metadata><data><meanElements><EPOCH>2024-01-20T22:51:41.333472</EPOCH><MEAN_MOTION>14.34693503</MEAN_MOTION><ECCENTRICITY>.0005523</ECCENTRICITY><INCLINATION>45.0407</INCLINATION><RA_OF_ASC_NODE>359.8448</RA_OF_ASC_NODE><ARG_OF_PERICENTER>293.0903</ARG_OF_PERICENTER><MEAN_ANOMALY>66.9362</MEAN_ANOMALY></meanElements><tleParameters><EPHEMERIS_TYPE>0</EPHEMERIS_TYPE><CLASSIFICATION_TYPE>U</CLASSIFICATION_TYPE><NORAD_CAT_ID>25986</NORAD_CAT_ID><ELEMENT_SET_NO>999</ELEMENT_SET_NO><REV_AT_EPOCH>26113</REV_AT_EPOCH><BSTAR>.69149E-3</BSTAR><MEAN_MOTION_DOT>.1834E-4</MEAN_MOTION_DOT><MEAN_MOTION_DDOT>0</MEAN_MOTION_DDOT></tleParameters></data></segment></body></omm>
<omm id="CCSDS_OMM_VERS" version="2.0">
<header><CREATION_DATE/><ORIGINATOR/></header><body><segment><metadata><OBJECT_NAME>ORBCOMM FM38 [-]</OBJECT_NAME><OBJECT_ID>2008-031A</OBJECT_ID><CENTER_NAME>EARTH</CENTER_NAME><REF_FRAME>TEME</REF_FRAME><TIME_SYSTEM>UTC</TIME_SYSTEM><MEAN_ELEMENT_THEORY>SGP4</MEAN_ELEMENT_THEORY></metadata><data><meanElements><EPOCH>2024-01-20T16:43:46.065216</EPOCH><MEAN_MOTION>14.76782654</MEAN_MOTION><ECCENTRICITY>.0005164</ECCENTRICITY><INCLINATION>48.4400</INCLINATION><RA_OF_ASC_NODE>233.3763</RA_OF_ASC_NODE><ARG_OF_PERICENTER>355.8386</ARG_OF_PERICENTER><MEAN_ANOMALY>4.2483</MEAN_ANOMALY></meanElements><tleParameters><EPHEMERIS_TYPE>0</EPHEMERIS_TYPE><CLASSIFICATION_TYPE>U</CLASSIFICATION_TYPE><NORAD_CAT_ID>33060</NORAD_CAT_ID><ELEMENT_SET_NO>999</ELEMENT_SET_NO><REV_AT_EPOCH>83874</REV_AT_EPOCH><BSTAR>.4375E-3</BSTAR><MEAN_MOTION_DOT>.2895E-4</MEAN_MOTION_DOT><MEAN_MOTION_DDOT>0</MEAN_MOTION_DDOT></tleParameters></data></segment></body></omm>
<omm id="CCSDS_OMM_VERS" version="2.0">
<header><CREATION_DATE/><ORIGINATOR/></header><body><segment><metadata><OBJECT_NAME>ORBCOMM FM41 [-]</OBJECT_NAME><OBJECT_ID>2008-031B</OBJECT_ID><CENTER_NAME>EARTH</CENTER_NAME><REF_FRAME>TEME</REF_FRAME><TIME_SYSTEM>UTC</TIME_SYSTEM><MEAN_ELEMENT_THEORY>SGP4</MEAN_ELEMENT_THEORY></metadata><data><meanElements><EPOCH>2024-01-20T17:53:08.127744</EPOCH><MEAN_MOTION>14.76525973</MEAN_MOTION><ECCENTRICITY>.0004295</ECCENTRICITY><INCLINATION>48.4433</INCLINATION><RA_OF_ASC_NODE>239.5138</RA_OF_ASC_NODE><ARG_OF_PERICENTER>340.5659</ARG_OF_PERICENTER><MEAN_ANOMALY>138.7329</MEAN_ANOMALY></meanElements><tleParameters><EPHEMERIS_TYPE>0</EPHEMERIS_TYPE><CLASSIFICATION_TYPE>U</CLASSIFICATION_TYPE><NORAD_CAT_ID>33061</NORAD_CAT_ID><ELEMENT_SET_NO>999</ELEMENT_SET_NO><REV_AT_EPOCH>83825</REV_AT_EPOCH><BSTAR>.39964E-3</BSTAR><MEAN_MOTION_DOT>.261E-4</MEAN_MOTION_DOT><MEAN_MOTION_DDOT>0</MEAN_MOTION_DDOT></tleParameters></data></segment></body></omm>
<omm id="CCSDS_OMM_VERS" version="2.0">
<header><CREATION_DATE/><ORIGINATOR/></header><body><segment><metadata><OBJECT_NAME>ORBCOMM FM29 [-]</OBJECT_NAME><OBJECT_ID>2008-031C</OBJECT_ID><CENTER_NAME>EARTH</CENTER_NAME><REF_FRAME>TEME</REF_FRAME><TIME_SYSTEM>UTC</TIME_SYSTEM><MEAN_ELEMENT_THEORY>SGP4</MEAN_ELEMENT_THEORY></metadata><data><meanElements><EPOCH>2024-01-20T20:35:23.798976</EPOCH><MEAN_MOTION>14.76432218</MEAN_MOTION><ECCENTRICITY>.0006313</ECCENTRICITY><INCLINATION>48.4386</INCLINATION><RA_OF_ASC_NODE>246.9996</RA_OF_ASC_NODE><ARG_OF_PERICENTER>342.1199</ARG_OF_PERICENTER><MEAN_ANOMALY>110.7527</MEAN_ANOMALY></meanElements><tleParameters><EPHEMERIS_TYPE>0</EPHEMERIS_TYPE><CLASSIFICATION_TYPE>U</CLASSIFICATION_TYPE><NORAD_CAT_ID>33062</NORAD_CAT_ID><ELEMENT_SET_NO>999</ELEMENT_SET_NO><REV_AT_EPOCH>83818</REV_AT_EPOCH><BSTAR>.44117E-3</BSTAR><MEAN_MOTION_DOT>.2896E-4</MEAN_MOTION_DOT><MEAN_MOTION_DDOT>0</MEAN_MOTION_DDOT></tleParameters></data></segment></body></omm>

</ndm>
