ORBCOMM FM33 [-]        
1 25983U 99065D   24020.84162736  .00001684  00000+0  60756-3 0  9996
2 25983  45.0287 273.9397 0009437   0.5248 119.5270 14.37212491262141
ORBCOMM FM36 [-]        
1 25984U 99065E   24020.97233275  .00002103  00000+0  77936-3 0  9993
2 25984  45.0414 356.9172 0004709 262.9634  97.0679 14.35085707261213
ORBCOMM FM35 [+]        
1 25985U 99065F   24020.98522440  .00002028  00000+0  75857-3 0  9996
2 25985  45.0411 359.1856 0004498 330.7670  29.2925 14.34737757261022
ORBCOMM FM34 [-]        
1 25986U 99065G   24020.95256173  .00001834  00000+0  69149-3 0  9992
2 25986  45.0407 359.8448 0005523 293.0903  66.9362 14.34693503261137
ORBCOMM FM38 [-]        
1 33060U 08031A   24020.69706094  .00002895  00000+0  43750-3 0  9998
2 33060  48.4400 233.3763 0005164 355.8386   4.2483 14.76782654838746
ORBCOMM FM41 [-]        
1 33061U 08031B   24020.74523296  .00002610  00000+0  39964-3 0  9993
2 33061  48.4433 239.5138 0004295 340.5659 138.7329 14.76525973838252
ORBCOMM FM29 [-]        
1 33062U 08031C   24020.85791434  .00002896  00000+0  44117-3 0  9999
2 33062  48.4386 246.9996 0006313 342.1199 110.7527 14.76432218838185
